GLOBALSTAR M067         
1 32263U 07048A   25186.88398097 -.00000077  00000+0  15061-3 0  9999
2 32263  51.9748 341.2240 0001433  58.7413  98.1274 12.40674460811800
GLOBALSTAR M070         
1 32264U 07048B   25186.20650056 -.00000096  00000+0  44893-4 0  9999
2 32264  51.9756  73.6090 0000722  74.2752  69.4018 12.62319678815945
GLOBALSTAR M066         
1 32265U 07048C   25186.85559255 -.00000079  00000+0  12990-3 0  9993
2 32265  51.9631 332.0558 0003881  19.3742 139.4225 12.30048750817593
GLOBALSTAR M068         
1 32266U 07048D   25186.53280994 -.00000064  00000+0  22304-3 0  9994
2 32266  51.9874 246.3351 0001348 167.9901 340.8431 12.62825788819873
GLOBALSTAR M079         
1 37188U 10054A   25186.86760285 -.00000110  00000+0 -34895-4 0  9997
2 37188  52.0043  82.9194 0000760  34.5716  41.9179 12.62265337678813
GLOBALSTAR M074         
1 37189U 10054B   25186.11822362 -.00000104  00000+0 -40355-5 0  9993
2 37189  52.0012  84.5223 0000833  58.1505  89.6686 12.62266336679329
GLOBALSTAR M076         
1 37190U 10054C   25186.92153514 -.00000115  00000+0 -61223-4 0  9998
2 37190  52.0035  82.2480 0000921  47.6567  33.3299 12.62263356679500
GLOBALSTAR M077         
1 37191U 10054D   25186.91340752 -.00000100  00000+0  21220-4 0  9996
2 37191  52.0086  39.1346 0000858  73.5566  30.7750 12.62268779679513
